NORAD_CAT_ID,OBJECT_NAME,OBJECT_TYPE,EPOCH,MEAN_MOTION,ECCENTRICITY,INCLINATION,RA_OF_ASC_NODE,ARG_OF_PERICENTER,MEAN_ANOMALY,BSTAR,MEAN_MOTION_DOT,MEAN_MOTION_DDOT,TLE_LINE0,TLE_LINE1,TLE_LINE2,SEMIMAJOR_AXIS,PERIOD,APOGEE,PERIGEE,DECAYED
50805.0,STARLINK-3333,PAYLOAD,2022-12-11 13:51:53,15.08843959,0.000213,53.2196,74.8196,40.2502,319.8648,5.6707e-05,6.14e-06,0.0,0 STARLINK-3333,1 50805U 22001C   22345.57770797  .00000614  00000-0  56707-4 0  9998,2 50805  53.2196  74.8196 0002130  40.2502 319.8648 15.08843959 51782,6917.868,95.437,541.207,538.26,0.0
50805.0,STARLINK-3333,PAYLOAD,2022-12-12 12:07:17,15.088355599999998,0.0002251,53.2206,70.6571,49.4881,310.6307,0.00010409,1.369e-05,0.0,0 STARLINK-3333,1 50805U 22001C   22346.50506837  .00001369  00000-0  10409-3 0  9990,2 50805  53.2206  70.6571 0002251  49.4881 310.6307 15.08835560 51926,6917.894,95.438,541.316,538.202,0.0
50805.0,STARLINK-3333,PAYLOAD,2022-12-12 16:53:27,15.0883587,0.0002327,53.2204,69.7646,43.0778,317.0396,9.2409e-05,1.183e-05,0.0,0 STARLINK-3333,1 50805U 22001C   22346.70378964  .00001183  00000-0  92409-4 0  9995,2 50805  53.2204  69.7646 0002327  43.0778 317.0396 15.08835870 53223,6917.893,95.438,541.368,538.148,0.0
50805.0,STARLINK-3333,PAYLOAD,2022-12-13 10:22:42,15.08831428,0.0002288,53.2191,66.494,42.0594,318.0574,-2.7991000000000004e-06,-3.33e-06,0.0,0 STARLINK-3333,1 50805U 22001C   22347.43243659 -.00000333  00000-0 -27991-5 0  9991,2 50805  53.2191  66.4940 0002288  42.0594 318.0574 15.08831428 52065,6917.906999999997,95.438,541.354,538.189,0.0
50805.0,STARLINK-3333,PAYLOAD,2022-12-13 16:44:15,15.08831132,0.000239,53.2198,65.304,42.7718,317.346,-1.3683e-05,-5.06e-06,0.0,0 STARLINK-3333,1 50805U 22001C   22347.69739866 -.00000506  00000-0 -13683-4 0  9993,2 50805  53.2198  65.3040 0002390  42.7718 317.3460 15.08831132 53373,6917.906999999997,95.438,541.4259999999998,538.119,0.0
50805.0,STARLINK-3333,PAYLOAD,2022-12-14 05:27:19,15.08844029,0.0002101,53.219,62.9253,37.3391,322.7746,9.9284e-05,1.292e-05,0.0,0 STARLINK-3333,1 50805U 22001C   22348.22730693  .00001292  00000-0  99284-4 0  9994,2 50805  53.2190  62.9253 0002101  37.3391 322.7746 15.08844029 53456,6917.868,95.437,541.187,538.28,0.0
50805.0,STARLINK-3333,PAYLOAD,2022-12-14 10:13:28,15.08841258,0.0002005,53.2202,62.0318,38.8767,321.2369,9.0347e-05,1.15e-05,0.0,0 STARLINK-3333,1 50805U 22001C   22348.42602901  .00001150  00000-0  90347-4 0  9990,2 50805  53.2202  62.0318 0002005  38.8767 321.2369 15.08841258 52218,6917.877,95.437,541.129,538.355,0.0
50805.0,STARLINK-3333,PAYLOAD,2022-12-14 11:48:52,15.08839484,0.0002282,53.2198,61.7364,32.3569,327.7563,8.3476e-05,1.04e-05,0.0,0 STARLINK-3333,1 50805U 22001C   22348.49227145  .00001040  00000-0  83476-4 0  9993,2 50805  53.2198  61.7364 0002282  32.3569 327.7563 15.08839484 53491,6917.882,95.438,541.326,538.168,0.0
50805.0,STARLINK-3333,PAYLOAD,2022-12-15 10:04:17,15.08826832,0.0002032,53.2192,57.573,32.0943,328.0173,2.2843e-05,7.5e-07,0.0,0 STARLINK-3333,1 50805U 22001C   22349.41964585  .00000075  00000-0  22843-4 0  9990,2 50805  53.2192  57.5730 0002032  32.0943 328.0173 15.08826832 53631,6917.920999999999,95.438,541.191,538.38,0.0
50805.0,STARLINK-3333,PAYLOAD,2022-12-15 13:15:03,15.08831525,0.0002148,53.2199,56.9791,27.6858,332.4248,4.4727e-05,4.24e-06,0.0,0 STARLINK-3333,1 50805U 22001C   22349.55212387  .00000424  00000-0  44727-4 0  9994,2 50805  53.2199  56.9791 0002148  27.6858 332.4248 15.08831525 52389,6917.906,95.438,541.257,538.285,0.0
50805.0,STARLINK-3333,PAYLOAD,2022-12-15 16:25:49,15.08835396,0.000211,53.2195,56.3836,28.6157,331.495,8.882e-05,1.125e-05,0.0,0 STARLINK-3333,1 50805U 22001C   22349.68460091  .00001125  00000-0  88820-4 0  9996,2 50805  53.2195  56.3836 0002110  28.6157 331.4950 15.08835396 53673,6917.894,95.438,541.219,538.3,0.0
50805.0,STARLINK-3333,PAYLOAD,2022-12-16 03:33:30,15.08846516,0.0002176,53.2193,54.3021,29.8103,330.3013,0.00011287,1.509e-05,0.0,0 STARLINK-3333,1 50805U 22001C   22350.14827346  .00001509  00000-0  11287-3 0  9997,2 50805  53.2193  54.3021 0002176  29.8103 330.3013 15.08846516 53743,6917.86,95.437,541.231,538.22,0.0
50805.0,STARLINK-3333,PAYLOAD,2022-12-16 13:05:49,15.08848065,0.000229,53.2181,52.5181,28.209,331.9026,0.00017773,2.542e-05,0.0,0 STARLINK-3333,1 50805U 22001C   22350.54571255  .00002542  00000-0  17773-3 0  9990,2 50805  53.2181  52.5181 0002290  28.2090 331.9026 15.08848065 52530,6917.856,95.437,541.305,538.137,0.0
50805.0,STARLINK-3333,PAYLOAD,2022-12-16 14:41:12,15.08848573,0.0002285,53.2182,52.2208,27.3292,332.782,0.00017962,2.572e-05,0.0,0 STARLINK-3333,1 50805U 22001C   22350.61195265  .00002572  00000-0  17962-3 0  9994,2 50805  53.2182  52.2208 0002285  27.3292 332.7820 15.08848573 52542,6917.854,95.437,541.3,538.138,0.0
50805.0,STARLINK-3333,PAYLOAD,2022-12-17 09:45:51,15.08830117,0.0002117,53.217,48.6518,24.9307,335.1787,1.4396000000000004e-06,-2.65e-06,0.0,0 STARLINK-3333,1 50805U 22001C   22351.40684504 -.00000265  00000-0  14396-5 0  9999,2 50805  53.2170  48.6518 0002117  24.9307 335.1787 15.08830117 53934,6917.911,95.438,541.24,538.311,0.0
50805.0,STARLINK-3333,PAYLOAD,2022-12-17 12:56:37,15.08825895,0.0002154,53.2166,48.0572,27.9237,332.1869999999999,-6.073e-05,-1.254e-05,0.0,0 STARLINK-3333,1 50805U 22001C   22351.53932822 -.00001254  00000-0 -60730-4 0  9994,2 50805  53.2166  48.0572 0002154  27.9237 332.1870 15.08825895 52687,6917.924,95.438,541.279,538.298,0.0
50805.0,STARLINK-3333,PAYLOAD,2022-12-17 16:07:23,15.08843461,0.0002166,53.2172,47.463,20.0454,340.0622,0.00017063,2.429e-05,0.0,0 STARLINK-3333,1 50805U 22001C   22351.67179875  .00002429  00000-0  17063-3 0  9993,2 50805  53.2172  47.4630 0002166  20.0454 340.0622 15.08843461 53975,6917.87,95.437,541.2330000000002,538.236,0.0
50805.0,STARLINK-3333,PAYLOAD,2022-12-17 20:53:32,15.0884832,0.0002082,53.2179,46.5713,20.8243,339.2834,0.00018649,2.682e-05,0.0,0 STARLINK-3333,1 50805U 22001C   22351.87051629  .00002682  00000-0  18649-3 0  9993,2 50805  53.2179  46.5713 0002082  20.8243 339.2834 15.08848320 52732,6917.855,95.437,541.16,538.28,0.0
50805.0,STARLINK-3333,PAYLOAD,2022-12-18 09:36:38,15.08832132,0.0002382,53.2169,44.1927,34.7015,325.4132,-9.0232e-05,-1.724e-05,0.0,0 STARLINK-3333,1 50805U 22001C   22352.40044457 -.00001724  00000-0 -90232-4 0  9991,2 50805  53.2169  44.1927 0002382  34.7015 325.4132 15.08832132 54088,6917.904,95.438,541.4169999999998,538.122,0.0
50805.0,STARLINK-3333,PAYLOAD,2022-12-18 12:47:24,15.08834876,0.0002418,53.2166,43.5977,32.2497,327.8643,-3.767e-05,-8.88e-06,0.0,0 STARLINK-3333,1 50805U 22001C   22352.53292389 -.00000888  00000-0 -37670-4 0  9991,2 50805  53.2166  43.5977 0002418  32.2497 327.8643 15.08834876 52831,6917.896,95.438,541.434,538.0880000000002,0.0
50805.0,STARLINK-3333,PAYLOAD,2022-12-18 20:44:20,15.08840609,0.0002416,53.2171,42.1105,31.8069,328.3069,8.0799e-05,9.98e-06,0.0,0 STARLINK-3333,1 50805U 22001C   22352.86412309  .00000998  00000-0  80799-4 0  9993,2 50805  53.2171  42.1105 0002416  31.8069 328.3069 15.08840609 52887,6917.879,95.438,541.415,538.072,0.0
50805.0,STARLINK-3333,PAYLOAD,2022-12-19 09:27:25,15.08835445,0.0002426,53.2171,39.7312,34.3021,325.8128,0.00023555,3.462e-05,0.0,0 STARLINK-3333,1 50805U 22001C   22353.39404713  .00003462  00000-0  23555-3 0  9997,2 50805  53.2171  39.7312 0002426  34.3021 325.8128 15.08835445 52965,6917.894,95.438,541.438,538.081,0.0
50805.0,STARLINK-3333,PAYLOAD,2022-12-19 20:35:06,15.08853099,0.0002576,53.2168,37.6494,35.6264,324.49,0.00035414,5.354e-05,0.0,0 STARLINK-3333,1 50805U 22001C   22353.85771982  .00005354  00000-0  35414-3 0  9992,2 50805  53.2168  37.6494 0002576  35.6264 324.4900 15.08853099 53035,6917.84,95.437,541.487,537.923,0.0
50805.0,STARLINK-3333,PAYLOAD,2022-12-20 02:56:39,15.08856561,0.0002504,53.2168,36.4602,35.1406,324.9751,0.00022044,3.223e-05,0.0,0 STARLINK-3333,1 50805U 22001C   22354.12267494  .00003223  00000-0  22044-3 0  9999,2 50805  53.2168  36.4602 0002504  35.1406 324.9751 15.08856561 54348,6917.83,95.437,541.427,537.9630000000002,0.0
50805.0,STARLINK-3333,PAYLOAD,2022-12-20 09:18:10,15.08871554,0.0002504,53.2169,35.2705,31.566,328.5482,-0.00032458,-5.455e-05,0.0,0 STARLINK-3333,1 50805U 22001C   22354.38762545 -.00005455  00000-0 -32458-3 0  9995,2 50805  53.2169  35.2705 0002504  31.5660 328.5482 15.08871554 53116,6917.784000000002,95.436,541.381,537.9169999999998,0.0
50805.0,STARLINK-3333,PAYLOAD,2022-12-20 14:04:20,15.08852832,0.0002465,53.2157,34.3795,32.559,327.5553,2.9391e-05,1.8e-06,0.0,0 STARLINK-3333,1 50805U 22001C   22354.58635375  .00000180  00000-0  29391-4 0  9998,2 50805  53.2157  34.3795 0002465  32.5590 327.5553 15.08852832 54411,6917.840999999999,95.437,541.411,538.001,0.0
50805.0,STARLINK-3333,PAYLOAD,2022-12-21 10:44:22,15.08833349,0.0002509,53.2171,30.513,33.8386,326.2766,-7.086e-05,-1.416e-05,0.0,0 STARLINK-3333,1 50805U 22001C   22355.44748423 -.00001416  00000-0 -70860-4 0  9995,2 50805  53.2171  30.5130 0002509  33.8386 326.2766 15.08833349 54542,6917.901,95.438,541.501,538.03,0.0
50805.0,STARLINK-3333,PAYLOAD,2022-12-21 12:19:46,15.08833979,0.0002507,53.2178,30.2156,33.4035,326.7114,-8.1739e-06,-4.18e-06,0.0,0 STARLINK-3333,1 50805U 22001C   22355.51372728 -.00000418  00000-0 -81739-5 0  9993,2 50805  53.2178  30.2156 0002507  33.4035 326.7114 15.08833979 53280,6917.899,95.438,541.498,538.029,0.0
50805.0,STARLINK-3333,PAYLOAD,2022-12-22 04:13:38,15.08828957,0.0002435,53.2175,27.2416,34.3503,325.7646,-0.00014244,-2.554e-05,0.0,0 STARLINK-3333,1 50805U 22001C   22356.17613647 -.00002554  00000-0 -14244-3 0  9992,2 50805  53.2175  27.2416 0002435  34.3503 325.7646 15.08828957 54653,6917.9140000000025,95.438,541.464,538.095,0.0
